[{"OBJECT_NAME":"IRIDIUM 33 DEB","OBJECT_ID":"1997-051MQ","EPOCH":"2026-04-26T20:14:53.577888","MEAN_MOTION":14.79368185,"ECCENTRICITY":0.00178616,"INCLINATION":86.3081,"RA_OF_ASC_NODE":252.0298,"ARG_OF_PERICENTER":86.2984,"MEAN_ANOMALY":64.8135,"EPHEMERIS_TYPE":0,"CLASSIFICATION_TYPE":"U","NORAD_CAT_ID":34870,"ELEMENT_SET_NO":999,"REV_AT_EPOCH":90906,"BSTAR":0.0013713083,"MEAN_MOTION_DOT":0.00010274,"MEAN_MOTION_DDOT":0},{"OBJECT_NAME":"IRIDIUM 33 DEB","OBJECT_ID":"1997-051MY","EPOCH":"2026-04-27T04:52:22.511712","MEAN_MOTION":14.67716921,"ECCENTRICITY":0.00275638,"INCLINATION":86.325,"RA_OF_ASC_NODE":265.8404,"ARG_OF_PERICENTER":113.1965,"MEAN_ANOMALY":64.0286,"EPHEMERIS_TYPE":0,"CLASSIFICATION_TYPE":"U","NORAD_CAT_ID":34896,"ELEMENT_SET_NO":999,"REV_AT_EPOCH":89605,"BSTAR":0.0010029278,"MEAN_MOTION_DOT":5.766e-5,"MEAN_MOTION_DDOT":0},{"OBJECT_NAME":"IRIDIUM 33 DEB","OBJECT_ID":"1997-051NF","EPOCH":"2026-04-26T11:55:38.769600","MEAN_MOTION":14.60782213,"ECCENTRICITY":0.0071136,"INCLINATION":86.1319,"RA_OF_ASC_NODE":305.4493,"ARG_OF_PERICENTER":196.2456,"MEAN_ANOMALY":193.5353,"EPHEMERIS_TYPE":0,"CLASSIFICATION_TYPE":"U","NORAD_CAT_ID":34926,"ELEMENT_SET_NO":999,"REV_AT_EPOCH":88420,"BSTAR":0.0042922783,"MEAN_MOTION_DOT":0.00021777,"MEAN_MOTION_DDOT":0},{"OBJECT_NAME":"IRIDIUM 33 DEB","OBJECT_ID":"1997-051NR","EPOCH":"2026-04-26T10:14:56.184288","MEAN_MOTION":14.4265622,"ECCENTRICITY":0.002243,"INCLINATION":86.3733,"RA_OF_ASC_NODE":359.4073,"ARG_OF_PERICENTER":135.0873,"MEAN_ANOMALY":37.6594,"EPHEMERIS_TYPE":0,"CLASSIFICATION_TYPE":"U","NORAD_CAT_ID":34985,"ELEMENT_SET_NO":999,"REV_AT_EPOCH":89116,"BSTAR":0.00046617073,"MEAN_MOTION_DOT":1.573e-5,"MEAN_MOTION_DDOT":0},{"OBJECT_NAME":"IRIDIUM 33 DEB","OBJECT_ID":"1997-051NX","EPOCH":"2026-04-25T06:17:08.700000","MEAN_MOTION":14.48283155,"ECCENTRICITY":0.0008778,"INCLINATION":86.3204,"RA_OF_ASC_NODE":310.6495,"ARG_OF_PERICENTER":19.2719,"MEAN_ANOMALY":340.8815,"EPHEMERIS_TYPE":0,"CLASSIFICATION_TYPE":"U","NORAD_CAT_ID":35051,"ELEMENT_SET_NO":999,"REV_AT_EPOCH":88928,"BSTAR":0.00043285,"MEAN_MOTION_DOT":1.637e-5,"MEAN_MOTION_DDOT":0},{"OBJECT_NAME":"IRIDIUM 33 DEB","OBJECT_ID":"1997-051NY","EPOCH":"2026-04-27T06:51:29.682144","MEAN_MOTION":14.38678476,"ECCENTRICITY":0.00116634,"INCLINATION":86.3289,"RA_OF_ASC_NODE":322.3866,"ARG_OF_PERICENTER":9.39,"MEAN_ANOMALY":350.7514,"EPHEMERIS_TYPE":0,"CLASSIFICATION_TYPE":"U","NORAD_CAT_ID":35052,"ELEMENT_SET_NO":999,"REV_AT_EPOCH":89224,"BSTAR":0.0001621376,"MEAN_MOTION_DOT":5.17e-6,"MEAN_MOTION_DDOT":0},{"OBJECT_NAME":"IRIDIUM 33 DEB","OBJECT_ID":"1997-051PF","EPOCH":"2026-04-26T15:13:52.021632","MEAN_MOTION":15.1410016,"ECCENTRICITY":0.00361838,"INCLINATION":86.2174,"RA_OF_ASC_NODE":346.5953,"ARG_OF_PERICENTER":48.4716,"MEAN_ANOMALY":311.9617,"EPHEMERIS_TYPE":0,"CLASSIFICATION_TYPE":"U","NORAD_CAT_ID":35080,"ELEMENT_SET_NO":999,"REV_AT_EPOCH":71709,"BSTAR":0.0073461589,"MEAN_MOTION_DOT":0.00138171,"MEAN_MOTION_DDOT":0},{"OBJECT_NAME":"IRIDIUM 33 DEB","OBJECT_ID":"1997-051PM","EPOCH":"2026-04-22T10:25:52.856256","MEAN_MOTION":14.4579135,"ECCENTRICITY":0.00180779,"INCLINATION":86.3902,"RA_OF_ASC_NODE":6.9576,"ARG_OF_PERICENTER":71.6022,"MEAN_ANOMALY":288.7144,"EPHEMERIS_TYPE":0,"CLASSIFICATION_TYPE":"U","NORAD_CAT_ID":35297,"ELEMENT_SET_NO":999,"REV_AT_EPOCH":72314,"BSTAR":0.00035081942,"MEAN_MOTION_DOT":1.266e-5,"MEAN_MOTION_DDOT":0},{"OBJECT_NAME":"IRIDIUM 33 DEB","OBJECT_ID":"1997-051PP","EPOCH":"2026-04-27T01:49:25.416768","MEAN_MOTION":14.42048357,"ECCENTRICITY":0.0056587,"INCLINATION":86.2885,"RA_OF_ASC_NODE":334.2304,"ARG_OF_PERICENTER":17.6665,"MEAN_ANOMALY":135.5313,"EPHEMERIS_TYPE":0,"CLASSIFICATION_TYPE":"U","NORAD_CAT_ID":35299,"ELEMENT_SET_NO":999,"REV_AT_EPOCH":88280,"BSTAR":0.0010738234,"MEAN_MOTION_DOT":3.612e-5,"MEAN_MOTION_DDOT":0},{"OBJECT_NAME":"IRIDIUM 33 DEB","OBJECT_ID":"1997-051QA","EPOCH":"2026-04-26T20:07:41.701440","MEAN_MOTION":14.50481536,"ECCENTRICITY":0.00144574,"INCLINATION":86.3548,"RA_OF_ASC_NODE":326.3309,"ARG_OF_PERICENTER":22.0703,"MEAN_ANOMALY":338.1121,"EPHEMERIS_TYPE":0,"CLASSIFICATION_TYPE":"U","NORAD_CAT_ID":35480,"ELEMENT_SET_NO":999,"REV_AT_EPOCH":88989,"BSTAR":0.00042972457,"MEAN_MOTION_DOT":1.703e-5,"MEAN_MOTION_DDOT":0},{"OBJECT_NAME":"IRIDIUM 33 DEB","OBJECT_ID":"1997-051QE","EPOCH":"2026-04-21T05:15:32.840640","MEAN_MOTION":15.1109185,"ECCENTRICITY":0.00125069,"INCLINATION":86.3479,"RA_OF_ASC_NODE":291.4792,"ARG_OF_PERICENTER":20.2959,"MEAN_ANOMALY":339.8774,"EPHEMERIS_TYPE":0,"CLASSIFICATION_TYPE":"U","NORAD_CAT_ID":35484,"ELEMENT_SET_NO":999,"REV_AT_EPOCH":63963,"BSTAR":0.0025426292,"MEAN_MOTION_DOT":0.00042851,"MEAN_MOTION_DDOT":0},{"OBJECT_NAME":"IRIDIUM 33 DEB","OBJECT_ID":"1997-051QJ","EPOCH":"2026-04-26T07:57:10.657440","MEAN_MOTION":14.86268526,"ECCENTRICITY":0.00230784,"INCLINATION":86.3243,"RA_OF_ASC_NODE":238.6356,"ARG_OF_PERICENTER":281.1988,"MEAN_ANOMALY":78.6642,"EPHEMERIS_TYPE":0,"CLASSIFICATION_TYPE":"U","NORAD_CAT_ID":35488,"ELEMENT_SET_NO":999,"REV_AT_EPOCH":90263,"BSTAR":0.00145468,"MEAN_MOTION_DOT":0.00012889,"MEAN_MOTION_DDOT":0},{"OBJECT_NAME":"IRIDIUM 33 DEB","OBJECT_ID":"1997-051QN","EPOCH":"2026-04-21T04:29:46.259808","MEAN_MOTION":14.85791192,"ECCENTRICITY":0.00106465,"INCLINATION":86.3497,"RA_OF_ASC_NODE":286.468,"ARG_OF_PERICENTER":87.8457,"MEAN_ANOMALY":272.3986,"EPHEMERIS_TYPE":0,"CLASSIFICATION_TYPE":"U","NORAD_CAT_ID":35616,"ELEMENT_SET_NO":999,"REV_AT_EPOCH":89494,"BSTAR":0.0012410303,"MEAN_MOTION_DOT":0.00010829,"MEAN_MOTION_DDOT":0},{"OBJECT_NAME":"IRIDIUM 33 DEB","OBJECT_ID":"1997-051QQ","EPOCH":"2026-04-24T05:29:15.509472","MEAN_MOTION":14.52870281,"ECCENTRICITY":0.00262809,"INCLINATION":86.3344,"RA_OF_ASC_NODE":295.5416,"ARG_OF_PERICENTER":294.7776,"MEAN_ANOMALY":65.0696,"EPHEMERIS_TYPE":0,"CLASSIFICATION_TYPE":"U","NORAD_CAT_ID":35618,"ELEMENT_SET_NO":999,"REV_AT_EPOCH":67317,"BSTAR":0.00028754827,"MEAN_MOTION_DOT":1.209e-5,"MEAN_MOTION_DDOT":0},{"OBJECT_NAME":"IRIDIUM 33 DEB","OBJECT_ID":"1997-051QS","EPOCH":"2026-04-26T13:41:26.212992","MEAN_MOTION":14.41340277,"ECCENTRICITY":0.0137147,"INCLINATION":86.391,"RA_OF_ASC_NODE":160.4562,"ARG_OF_PERICENTER":172.3247,"MEAN_ANOMALY":188.0099,"EPHEMERIS_TYPE":0,"CLASSIFICATION_TYPE":"U","NORAD_CAT_ID":35620,"ELEMENT_SET_NO":999,"REV_AT_EPOCH":61906,"BSTAR":0.0019793,"MEAN_MOTION_DOT":7.189e-5,"MEAN_MOTION_DDOT":0},{"OBJECT_NAME":"IRIDIUM 33 DEB","OBJECT_ID":"1997-051QU","EPOCH":"2026-04-25T23:45:39.828384","MEAN_MOTION":15.1849844,"ECCENTRICITY":0.00101508,"INCLINATION":86.1914,"RA_OF_ASC_NODE":196.5944,"ARG_OF_PERICENTER":137.6963,"MEAN_ANOMALY":35.1119,"EPHEMERIS_TYPE":0,"CLASSIFICATION_TYPE":"U","NORAD_CAT_ID":35622,"ELEMENT_SET_NO":999,"REV_AT_EPOCH":89388,"BSTAR":0.0027142848,"MEAN_MOTION_DOT":0.00056408,"MEAN_MOTION_DDOT":0}]
