IRIDIUM 33 DEB          
1 34870U 97051MQ  26116.84367567  .00010274  00000+0  13713-2 0  9996
2 34870  86.3081 252.0298 0017861  86.2984  64.8135 14.79368185909061
IRIDIUM 33 DEB          
1 34896U 97051MY  26117.20303833  .00005766  00000+0  10029-2 0  9998
2 34896  86.3250 265.8404 0027563 113.1965  64.0286 14.67716921896052
IRIDIUM 33 DEB          
1 34926U 97051NF  26116.49697650  .00021777  00000+0  42923-2 0  9993
2 34926  86.1319 305.4493 0071136 196.2456 193.5353 14.60782213884208
IRIDIUM 33 DEB          
1 34985U 97051NR  26116.42703917  .00001573  00000+0  46617-3 0  9992
2 34985  86.3733 359.4073 0022430 135.0873  37.6594 14.42656220891161
IRIDIUM 33 DEB          
1 35051U 97051NX  26115.26190625  .00001637  00000+0  43285-3 0  9993
2 35051  86.3204 310.6495 0008778  19.2719 340.8815 14.48283155889281
IRIDIUM 33 DEB          
1 35052U 97051NY  26117.28576021  .00000517  00000+0  16214-3 0  9994
2 35052  86.3289 322.3866 0011663   9.3900 350.7514 14.38678476892245
IRIDIUM 33 DEB          
1 35080U 97051PF  26116.63462988  .00138171  00000+0  73462-2 0  9994
2 35080  86.2174 346.5953 0036183  48.4716 311.9617 15.14100160717093
IRIDIUM 33 DEB          
1 35297U 97051PM  26112.43463954  .00001266  00000+0  35082-3 0  9993
2 35297  86.3902   6.9576 0018077  71.6022 288.7144 14.45791350723140
IRIDIUM 33 DEB          
1 35299U 97051PP  26117.07598862  .00003612  00000+0  10738-2 0  9994
2 35299  86.2885 334.2304 0056587  17.6665 135.5313 14.42048357882803
IRIDIUM 33 DEB          
1 35480U 97051QA  26116.83867710  .00001703  00000+0  42972-3 0  9995
2 35480  86.3548 326.3309 0014457  22.0703 338.1121 14.50481536889895
IRIDIUM 33 DEB          
1 35484U 97051QE  26111.21913010  .00042851  00000+0  25426-2 0  9994
2 35484  86.3479 291.4792 0012506  20.2959 339.8774 15.11091850639637
IRIDIUM 33 DEB          
1 35488U 97051QJ  26116.33137335  .00012889  00000+0  14547-2 0  9994
2 35488  86.3243 238.6356 0023078 281.1988  78.6642 14.86268526902637
IRIDIUM 33 DEB          
1 35616U 97051QN  26111.18734097  .00010829  00000+0  12410-2 0  9992
2 35616  86.3497 286.4680 0010646  87.8457 272.3986 14.85791192894948
IRIDIUM 33 DEB          
1 35618U 97051QQ  26114.22865173  .00001209  00000+0  28755-3 0  9994
2 35618  86.3344 295.5416 0026280 294.7776  65.0696 14.52870281673179
IRIDIUM 33 DEB          
1 35620U 97051QS  26116.57044228  .00007189  00000+0  19793-2 0  9991
2 35620  86.3910 160.4562 0137147 172.3247 188.0099 14.41340277619068
IRIDIUM 33 DEB          
1 35622U 97051QU  26115.99004431  .00056408  00000+0  27143-2 0  9996
2 35622  86.1914 196.5944 0010150 137.6963  35.1119 15.18498440893889
